{"fetched_at":"2026-03-29T16:36:15Z","count":15609,"tles":[{"name":"LEMUR-2-UNTITLED-SC","line1":"1 63351U 25061A   26087.87577067  .00005287  00000+0  30307-3 0  9999","line2":"2 63351  97.5574  63.8896 0018946 176.6233 183.5129 15.12868499 55443","category":"Other"}]}